NORAD_CAT_ID,OBJECT_NAME,OBJECT_TYPE,EPOCH,MEAN_MOTION,ECCENTRICITY,INCLINATION,RA_OF_ASC_NODE,ARG_OF_PERICENTER,MEAN_ANOMALY,BSTAR,MEAN_MOTION_DOT,MEAN_MOTION_DDOT,TLE_LINE0,TLE_LINE1,TLE_LINE2,SEMIMAJOR_AXIS,PERIOD,APOGEE,PERIGEE,DECAYED
49159.0,STARLINK-3056,PAYLOAD,2022-01-29 22:00:00,14.98343756,0.0004059,69.999,115.9218,287.511,24.5422,-0.0030835,-0.00036709,0.0,0 STARLINK-3056,1 49159U 21082AF  22029.91667824 -.00036709  00000-0 -30835-2 0  9997,2 49159  69.9990 115.9218 0004059 287.5110  24.5422 14.98343756  3575,6950.15,96.106,574.836,569.194,0.0
49159.0,STARLINK-3056,PAYLOAD,2022-01-30 14:00:01,14.9832259,0.0004123,69.9993,114.2409,289.372,17.6685,0.0029449,0.00035218,0.0,0 STARLINK-3056,1 49159U 21082AF  22030.58334491  .00035218  00000-0  29449-2 0  9994,2 49159  69.9993 114.2409 0004123 289.3720  17.6685 14.98322590 22513,6950.215999999999,96.107,574.946,569.215,0.0
49159.0,STARLINK-3056,PAYLOAD,2022-01-30 22:00:00,14.98365783,0.0004027,69.999,113.4005,287.9354,16.5925,-0.0063174,-0.0007475,0.0,0 STARLINK-3056,1 49159U 21082AF  22030.91667824 -.00074750  00000-0 -63174-2 0  9999,2 49159  69.9990 113.4005 0004027 287.9354  16.5925 14.98365783  3574,6950.081999999999,96.105,574.746,569.148,0.0
49159.0,STARLINK-3056,PAYLOAD,2022-01-31 06:00:00,14.98331284,0.0003932,69.9992,112.56,285.0766,16.9413,-0.00011731,-1.493e-05,0.0,0 STARLINK-3056,1 49159U 21082AF  22031.25001157 -.00001493  00000-0 -11731-3 0  9995,2 49159  69.9992 112.5600 0003932 285.0766  16.9413 14.98331284 22618,6950.189,96.107,574.7869999999998,569.321,0.0
49159.0,STARLINK-3056,PAYLOAD,2022-01-31 14:00:01,14.98307854,0.0004042,69.9992,111.7194,290.1537,9.4158,0.0029954,0.00035813,0.0,0 STARLINK-3056,1 49159U 21082AF  22031.58335648  .00035813  00000-0  29954-2 0  9992,2 49159  69.9992 111.7194 0004042 290.1537   9.4158 14.98307854  3576,6950.261,96.108,574.936,569.317,0.0
49159.0,STARLINK-3056,PAYLOAD,2022-01-31 22:00:01,14.98335803,0.0003989,69.9988,110.8788,287.97,9.0714,-0.0022166,-0.00026448,0.0,0 STARLINK-3056,1 49159U 21082AF  22031.91668981 -.00026448  00000-0 -22166-2 0  9992,2 49159  69.9988 110.8788 0003989 287.9700   9.0714 14.98335803  3563,6950.175,96.107,574.812,569.268,0.0
49159.0,STARLINK-3056,PAYLOAD,2022-02-01 14:00:01,14.98325511,0.0004076,69.9989,109.1976,289.5237,2.5016,0.0026981,0.00032247,0.0,0 STARLINK-3056,1 49159U 21082AF  22032.58335648  .00032247  00000-0  26981-2 0  9998,2 49159  69.9989 109.1976 0004076 289.5237   2.5016 14.98325511 22812,6950.206999999999,96.107,574.905,569.239,0.0
49159.0,STARLINK-3056,PAYLOAD,2022-02-01 22:00:00,14.98346764,0.0003995,69.9984,108.357,287.3119,2.1452,-0.004658,-0.00055265,0.0,0 STARLINK-3056,1 49159U 21082AF  22032.91667824 -.00055265  00000-0 -46580-2 0  9993,2 49159  69.9984 108.3570 0003995 287.3119   2.1452 14.98346764  3577,6950.141,96.106,574.783,569.229,0.0
49159.0,STARLINK-3056,PAYLOAD,2022-02-02 06:00:00,14.98336149,0.0003947,69.9986,107.5165,284.3538,2.5738,-0.00071663,-8.635e-05,0.0,0 STARLINK-3056,1 49159U 21082AF  22033.25001157 -.00008635  00000-0 -71663-3 0  9992,2 49159  69.9986 107.5165 0003947 284.3538   2.5738 14.98336149 22915,6950.174,96.107,574.7819999999998,569.2959999999998,0.0
49159.0,STARLINK-3056,PAYLOAD,2022-02-02 14:00:01,14.98307396,0.0004074,69.9985,106.6757,289.0896,355.3257,0.0030436,0.00036393,0.0,0 STARLINK-3056,1 49159U 21082AF  22033.58334491  .00036393  00000-0  30436-2 0  9990,2 49159  69.9985 106.6757 0004074 289.0896 355.3257 14.98307396  3570,6950.263000000001,96.108,574.9590000000002,569.2959999999998,0.0
49159.0,STARLINK-3056,PAYLOAD,2022-02-02 22:00:00,14.98325332,0.0004067,69.9981,105.835,286.4659,355.4204,-0.0013747,-0.00016457,0.0,0 STARLINK-3056,1 49159U 21082AF  22033.91667824 -.00016457  00000-0 -13747-2 0  9993,2 49159  69.9981 105.8350 0004067 286.4659 355.4204 14.98325332  3580,6950.206999999999,96.107,574.899,569.246,0.0
49159.0,STARLINK-3056,PAYLOAD,2022-02-03 14:00:01,14.98318405,0.0004171,69.9981,104.1537,288.7047,348.1595,0.0033211999999999,0.00039752,0.0,0 STARLINK-3056,1 49159U 21082AF  22034.58334491  .00039752  00000-0  33212-2 0  9998,2 49159  69.9981 104.1537 0004171 288.7047 348.1595 14.98318405 23117,6950.229,96.108,574.993,569.195,0.0
49159.0,STARLINK-3056,PAYLOAD,2022-02-03 22:00:01,14.98345101,0.0004121,69.9979,103.313,286.1703,348.2493,-0.0016098,-0.00019258,0.0,0 STARLINK-3056,1 49159U 21082AF  22034.91668981 -.00019258  00000-0 -16098-2 0  9993,2 49159  69.9979 103.3130 0004121 286.1703 348.2493 14.98345101  3579,6950.146,96.106,574.875,569.1469999999998,0.0
49159.0,STARLINK-3056,PAYLOAD,2022-02-04 06:00:00,14.98360329,0.000407,69.9981,102.4725,284.2746,347.5795,-0.0036067,-0.00042903,0.0,0 STARLINK-3056,1 49159U 21082AF  22035.25001157 -.00042903  00000-0 -36067-2 0  9998,2 49159  69.9981 102.4725 0004070 284.2746 347.5795 14.98360329 23210,6950.099,96.105,574.793,569.135,0.0
49159.0,STARLINK-3056,PAYLOAD,2022-02-04 14:00:01,14.98312431,0.0004113,69.9979,101.6317,289.3897,340.0362,0.0038386,0.00045993,0.0,0 STARLINK-3056,1 49159U 21082AF  22035.58335648  .00045993  00000-0  38386-2 0  9995,2 49159  69.9979 101.6317 0004113 289.3897 340.0362 14.98312431  3572,6950.246999999999,96.108,574.971,569.254,0.0
49159.0,STARLINK-3056,PAYLOAD,2022-02-04 22:00:00,14.98340284,0.0004003,69.9978,100.7912,286.7887,340.0556,-0.0022954,-0.00027384,0.0,0 STARLINK-3056,1 49159U 21082AF  22035.91667824 -.00027384  00000-0 -22954-2 0  9996,2 49159  69.9978 100.7912 0004003 286.7887 340.0556 14.98340284 23316,6950.161,96.106,574.808,569.244,0.0
49159.0,STARLINK-3056,PAYLOAD,2022-02-05 14:00:01,14.98302893,0.0004016,69.9978,99.11,290.5606,331.2586,0.0039828,0.00047723,0.0,0 STARLINK-3056,1 49159U 21082AF  22036.58334491  .00047723  00000-0  39828-2 0  9996,2 49159  69.9978  99.1100 0004016 290.5606 331.2586 14.98302893 23412,6950.276999999999,96.109,574.933,569.35,0.0
49159.0,STARLINK-3056,PAYLOAD,2022-02-06 06:00:00,14.98369135,0.0003897,69.9979,97.4288,285.9971,330.76,-0.0062576,-0.00074056,0.0,0 STARLINK-3056,1 49159U 21082AF  22037.25001157 -.00074056  00000-0 -62576-2 0  9998,2 49159  69.9979  97.4288 0003897 285.9971 330.7600 14.98369135 23514,6950.071999999999,96.104,574.645,569.2280000000002,0.0
49159.0,STARLINK-3056,PAYLOAD,2022-02-06 14:00:01,14.98287871,0.0003911,69.9978,96.5881,291.4840000000001,322.8348,0.0036814,0.00044064,0.0,0 STARLINK-3056,1 49159U 21082AF  22037.58335648  .00044064  00000-0  36814-2 0  9999,2 49159  69.9978  96.5881 0003911 291.4840 322.8348 14.98287871  3577,6950.323,96.11,574.906,569.47,0.0
49159.0,STARLINK-3056,PAYLOAD,2022-02-06 22:00:00,14.98295232,0.0003827,69.9976,95.7475,287.7756,323.934,0.0014488,0.00017222,0.0,0 STARLINK-3056,1 49159U 21082AF  22037.91667824  .00017222  00000-0  14488-2 0  9999,2 49159  69.9976  95.7475 0003827 287.7756 323.9340 14.98295232 23616,6950.3,96.109,574.825,569.506,0.0
49159.0,STARLINK-3056,PAYLOAD,2022-02-07 14:00:01,14.98297715,0.0003969,69.998,94.0663,290.7759,315.8505,0.003399,0.00040668,0.0,0 STARLINK-3056,1 49159U 21082AF  22038.58334491  .00040668  00000-0  33990-2 0  9993,2 49159  69.9980  94.0663 0003969 290.7759 315.8505 14.98297715  3570,6950.293000000002,96.109,574.9159999999998,569.399,0.0
49159.0,STARLINK-3056,PAYLOAD,2022-02-07 22:00:00,14.98300188,0.0003899,69.9978,93.2257,286.838,317.2555,0.0020176,0.00024046,0.0,0 STARLINK-3056,1 49159U 21082AF  22038.91667824  .00024046  00000-0  20176-2 0  9993,2 49159  69.9978  93.2257 0003899 286.8380 317.2555 14.98300188  3586,6950.285,96.109,574.86,569.44,0.0
49159.0,STARLINK-3056,PAYLOAD,2022-02-08 06:00:00,14.98344302,0.0003931,69.9981,92.3851,285.3912,316.153,-0.0027965,-0.00033317,0.0,0 STARLINK-3056,1 49159U 21082AF  22039.25001157 -.00033317  00000-0 -27965-2 0  9998,2 49159  69.9981  92.3851 0003931 285.3912 316.1530 14.98344302 23817,6950.149,96.106,574.746,569.2819999999998,0.0
49159.0,STARLINK-3056,PAYLOAD,2022-02-08 14:00:01,14.98306761,0.0004061,69.9981,91.5445,289.8548,309.1794,0.0033488,0.00040072,0.0,0 STARLINK-3056,1 49159U 21082AF  22039.58334491  .00040072  00000-0  33488-2 0  9995,2 49159  69.9981  91.5445 0004061 289.8548 309.1794 14.98306761  3589,6950.265,96.108,574.952,569.307,0.0
49159.0,STARLINK-3056,PAYLOAD,2022-02-08 22:00:01,14.98306252,0.0004003,69.998,90.7038,285.9567,310.6203,0.0027291,0.00032604,0.0,0 STARLINK-3056,1 49159U 21082AF  22039.91668981  .00032604  00000-0  27291-2 0  9993,2 49159  69.9980  90.7038 0004003 285.9567 310.6203 14.98306252 23917,6950.266,96.109,574.914,569.349,0.0
49159.0,STARLINK-3056,PAYLOAD,2022-02-09 12:58:13,14.9832495,0.0003984,69.9962,89.1312,286.6179,73.4542,0.00016313,1.854e-05,0.0,0 STARLINK-3056,1 49159U 21082AF  22040.54042998  .00001854  00000-0  16313-3 0  9995,2 49159  69.9962  89.1312 0003984 286.6179  73.4542 14.98324950 24015,6950.209,96.107,574.842,569.305,0.0
49159.0,STARLINK-3056,PAYLOAD,2022-02-09 22:00:00,14.98313699,0.000408,69.9983,88.1822,285.5659,303.4083,0.0033760999999999,0.00040409,0.0,0 STARLINK-3056,1 49159U 21082AF  22040.91667824  .00040409  00000-0  33761-2 0  9991,2 49159  69.9983  88.1822 0004080 285.5659 303.4083 14.98313699 24061,6950.243,96.108,574.944,569.273,0.0
49159.0,STARLINK-3056,PAYLOAD,2022-02-10 13:00:13,14.98335423,0.000403,69.9961,86.6059,286.2984,73.7732,0.00017059,1.943e-05,0.0,0 STARLINK-3056,1 49159U 21082AF  22041.54182451  .00001943  00000-0  17059-3 0  9992,2 49159  69.9961  86.6059 0004030 286.2984  73.7732 14.98335423 24164,6950.176,96.107,574.842,569.24,0.0
49159.0,STARLINK-3056,PAYLOAD,2022-02-10 14:00:01,14.98328687,0.0004189,69.9984,86.5012,289.3912,294.6317,0.0030326,0.00036281,0.0,0 STARLINK-3056,1 49159U 21082AF  22041.58335648  .00036281  00000-0  30326-2 0  9998,2 49159  69.9984  86.5012 0004189 289.3912 294.6317 14.98328687 24164,6950.196999999999,96.107,574.9730000000002,569.151,0.0
